NORAD_CAT_ID,OBJECT_NAME,OBJECT_TYPE,EPOCH,MEAN_MOTION,ECCENTRICITY,INCLINATION,RA_OF_ASC_NODE,ARG_OF_PERICENTER,MEAN_ANOMALY,BSTAR,MEAN_MOTION_DOT,MEAN_MOTION_DDOT,TLE_LINE0,TLE_LINE1,TLE_LINE2,SEMIMAJOR_AXIS,PERIOD,APOGEE,PERIGEE,DECAYED
53533.0,STARLINK-4493,PAYLOAD,2023-10-16 16:48:30,15.0884642,0.0001671,53.2189,42.0929,71.2476,288.8698,0.00020949,3.048e-05,0.0,0 STARLINK-4493,1 53533U 22101G   23289.70035835  .00003048  00000-0  20949-3 0  9992,2 53533  53.2189  42.0929 0001671  71.2476 288.8698 15.08846420 64071,6917.861,95.437,540.882,538.57,0.0
53533.0,STARLINK-4493,PAYLOAD,2023-10-17 13:28:31,15.08843073,0.0001263,53.2179,38.2259,91.0389,269.0748,0.00022559,3.304e-05,0.0,0 STARLINK-4493,1 53533U 22101G   23290.56148112  .00003304  00000-0  22559-3 0  9995,2 53533  53.2179  38.2259 0001263  91.0389 269.0748 15.08843073 64206,6917.871,95.437,540.61,538.862,0.0
53533.0,STARLINK-4493,PAYLOAD,2023-10-18 00:36:13,15.08849059,0.0001295,53.2187,36.1454,88.7034,271.4107,0.00022913,3.361e-05,0.0,0 STARLINK-4493,1 53533U 22101G   23291.02515860  .00003361  00000-0  22913-3 0  9992,2 53533  53.2187  36.1454 0001295  88.7034 271.4107 15.08849059 64277,6917.853,95.437,540.614,538.822,0.0
53533.0,STARLINK-4493,PAYLOAD,2023-10-18 13:19:18,15.08849478,0.0001499,53.2176,33.7644,97.8178,262.2984,8.6224e-05,1.085e-05,0.0,0 STARLINK-4493,1 53533U 22101G   23291.55507811  .00001085  00000-0  86224-4 0  9994,2 53533  53.2176  33.7644 0001499  97.8178 262.2984 15.08849478 64350,6917.851,95.437,540.753,538.679,0.0
53533.0,STARLINK-4493,PAYLOAD,2023-10-19 00:27:00,15.08850434,0.00015,53.2174,31.6828,100.0093,260.1069,0.0001189,1.605e-05,0.0,0 STARLINK-4493,1 53533U 22101G   23292.01875638  .00001605  00000-0  11890-3 0  9995,2 53533  53.2174  31.6828 0001500 100.0093 260.1069 15.08850434 64428,6917.848,95.437,540.751,538.676,0.0
53533.0,STARLINK-4493,PAYLOAD,2023-10-19 11:34:41,15.0886014,0.0001495,53.2183,29.6034,86.5935,273.5228,0.00033336,5.024e-05,0.0,0 STARLINK-4493,1 53533U 22101G   23292.48243051  .00005024  00000-0  33336-3 0  9992,2 53533  53.2183  29.6034 0001495  86.5935 273.5228 15.08860140 64497,6917.819,95.436,540.718,538.65,0.0
53533.0,STARLINK-4493,PAYLOAD,2023-10-20 11:25:29,15.08833286,0.0001455,53.2172,25.1394,104.6627,255.4526,-0.00011608,-2.135e-05,0.0,0 STARLINK-4493,1 53533U 22101G   23293.47603884 -.00002135  00000-0 -11608-3 0  9996,2 53533  53.2172  25.1394 0001455 104.6627 255.4526 15.08833286 64649,6917.901,95.438,540.772,538.759,0.0
53533.0,STARLINK-4493,PAYLOAD,2023-10-21 12:51:39,15.08846508,0.0001326,53.218,20.3848,92.4885,267.6259,0.00028657,4.277e-05,0.0,0 STARLINK-4493,1 53533U 22101G   23294.53587929  .00004277  00000-0  28657-3 0  9994,2 53533  53.2180  20.3848 0001326  92.4885 267.6259 15.08846508 64803,6917.86,95.437,540.643,538.808,0.0
53533.0,STARLINK-4493,PAYLOAD,2023-10-21 22:23:59,15.08843792,0.0001316,53.2177,18.6013,96.2621,263.8521,0.00035038,5.293e-05,0.0,0 STARLINK-4493,1 53533U 22101G   23294.93332326  .00005293  00000-0  35038-3 0  9997,2 53533  53.2177  18.6013 0001316  96.2621 263.8521 15.08843792 64860,6917.869,95.437,540.644,538.823,0.0
53533.0,STARLINK-4493,PAYLOAD,2023-10-22 12:42:27,15.08832724,0.0001494,53.2181,15.9273,97.6652,262.4509,0.00014453,2.013e-05,0.0,0 STARLINK-4493,1 53533U 22101G   23295.52948936  .00002013  00000-0  14453-3 0  9998,2 53533  53.2181  15.9273 0001494  97.6652 262.4509 15.08832724 64953,6917.903,95.438,540.801,538.734,0.0
53533.0,STARLINK-4493,PAYLOAD,2023-10-23 10:57:52,15.08831012,0.0001522,53.218,11.7614,87.2999,272.8168,-9.4403e-06,-4.38e-06,0.0,0 STARLINK-4493,1 53533U 22101G   23296.45685730 -.00000438  00000-0 -94403-5 0  9997,2 53533  53.2180  11.7614 0001522  87.2999 272.8168 15.08831012 65097,6917.908,95.438,540.826,538.72,0.0
53533.0,STARLINK-4493,PAYLOAD,2023-10-23 22:05:34,15.08838548,0.0001554,53.2186,9.6815,87.9338,272.1832,0.00022541,3.301e-05,0.0,0 STARLINK-4493,1 53533U 22101G   23296.92053776  .00003301  00000-0  22541-3 0  9990,2 53533  53.2186   9.6815 0001554  87.9338 272.1832 15.08838548 65161,6917.885,95.438,540.825,538.675,0.0
53533.0,STARLINK-4493,PAYLOAD,2023-10-24 04:27:06,15.08843075,0.0001421,53.2175,8.4914,86.0112,274.1042,0.00041541,6.33e-05,0.0,0 STARLINK-4493,1 53533U 22101G   23297.18549751  .00006330  00000-0  41541-3 0  9998,2 53533  53.2175   8.4914 0001421  86.0112 274.1042 15.08843075 65200,6917.871,95.437,540.719,538.753,0.0
53533.0,STARLINK-4493,PAYLOAD,2023-10-24 12:24:02,15.08859202,0.0001427,53.2176,7.0051,85.9298,274.1857,0.00076963,0.00011988,0.0,0 STARLINK-4493,1 53533U 22101G   23297.51669319  .00011988  00000-0  76963-3 0  9999,2 53533  53.2176   7.0051 0001427  85.9298 274.1857 15.08859202 65255,6917.822,95.436,540.674,538.7,0.0
53533.0,STARLINK-4493,PAYLOAD,2023-10-25 12:14:49,15.08847018,0.0001572,53.2187,2.5453,85.5084,274.6088,0.00016837,2.393e-05,0.0,0 STARLINK-4493,1 53533U 22101G   23298.51029198  .00002393  00000-0  16837-3 0  9999,2 53533  53.2187   2.5453 0001572  85.5084 274.6088 15.08847018 65403,6917.859,95.437,540.811,538.636,0.0
53533.0,STARLINK-4493,PAYLOAD,2023-10-25 21:47:07,15.08848429,0.0001654,53.218,0.7609,75.6233,284.4942,0.00014404,2.006e-05,0.0,0 STARLINK-4493,1 53533U 22101G   23298.90773081  .00002006  00000-0  14404-3 0  9998,2 53533  53.2180   0.7609 0001654  75.6233 284.4942 15.08848429 65467,6917.855,95.437,540.864,538.575,0.0
53533.0,STARLINK-4493,PAYLOAD,2023-10-26 10:30:12,15.08849436,0.0001741,53.2177,358.3826,73.7846,286.3337,8.3608e-05,1.043e-05,0.0,0 STARLINK-4493,1 53533U 22101G   23299.43764894  .00001043  00000-0  83608-4 0  9992,2 53533  53.2177 358.3826 0001741  73.7846 286.3337 15.08849436 65549,6917.852,95.437,540.921,538.512,0.0
53533.0,STARLINK-4493,PAYLOAD,2023-10-27 03:59:27,15.08847525,0.0001987,53.2187,355.1117,74.5707,285.5505,0.00014995,2.1e-05,0.0,0 STARLINK-4493,1 53533U 22101G   23300.16628835  .00002100  00000-0  14995-3 0  9996,2 53533  53.2187 355.1117 0001987  74.5707 285.5505 15.08847525 65652,6917.857,95.437,541.097,538.348,0.0
53533.0,STARLINK-4493,PAYLOAD,2023-10-27 10:20:59,15.08852105,0.0001642,53.2179,353.9204,85.4305,274.6874,0.00014144,1.964e-05,0.0,0 STARLINK-4493,1 53533U 22101G   23300.43124304  .00001964  00000-0  14144-3 0  9991,2 53533  53.2179 353.9204 0001642  85.4305 274.6874 15.08852105 65691,6917.843,95.437,540.844,538.572,0.0
53533.0,STARLINK-4493,PAYLOAD,2023-10-28 10:11:47,15.0883271,0.0001416,53.2176,349.4554,95.3262,264.7892,2.4714e-05,1.05e-06,0.0,0 STARLINK-4493,1 53533U 22101G   23301.42485319  .00000105  00000-0  24714-4 0  9998,2 53533  53.2176 349.4554 0001416  95.3262 264.7892 15.08832710 65844,6917.903,95.438,540.747,538.788,0.0
53533.0,STARLINK-4493,PAYLOAD,2023-10-28 13:22:33,15.08833629,0.0001609,53.2179,348.8621,99.6096,260.5078,-9.2692e-05,-1.763e-05,0.0,0 STARLINK-4493,1 53533U 22101G   23301.55733315 -.00001763  00000-0 -92692-4 0  9997,2 53533  53.2179 348.8621 0001609  99.6096 260.5078 15.08833629 65863,6917.9,95.438,540.878,538.652,0.0
53533.0,STARLINK-4493,PAYLOAD,2023-10-28 19:44:06,15.08836469,0.0001602,53.2172,347.6749,97.3866,262.7308,1.6518e-05,-2.5e-07,0.0,0 STARLINK-4493,1 53533U 22101G   23301.82229289 -.00000025  00000-0  16518-4 0  9999,2 53533  53.2172 347.6749 0001602  97.3866 262.7308 15.08836469 65907,6917.891,95.438,540.864,538.648,0.0
53533.0,STARLINK-4493,PAYLOAD,2023-10-29 10:02:33,15.08852765,0.000158,53.2168,344.9998,96.4592,263.658,0.00029169,4.359e-05,0.0,0 STARLINK-4493,1 53533U 22101G   23302.41844602  .00004359  00000-0  29169-3 0  9995,2 53533  53.2168 344.9998 0001580  96.4592 263.6580 15.08852765 65997,6917.841,95.437,540.799,538.613,0.0
53533.0,STARLINK-4493,PAYLOAD,2023-10-29 19:34:52,15.08843573,0.0001482,53.2171,343.2148,88.0939,272.0223,0.0002139,3.118e-05,0.0,0 STARLINK-4493,1 53533U 22101G   23302.81589038  .00003118  00000-0  21390-3 0  9998,2 53533  53.2171 343.2148 0001482  88.0939 272.0223 15.08843573 66056,6917.869,95.437,540.76,538.709,0.0
53533.0,STARLINK-4493,PAYLOAD,2023-10-30 03:31:49,15.08830589,0.0001386,53.2165,341.7278,99.7606,260.3542,3.8754e-05,3.29e-06,0.0,0 STARLINK-4493,1 53533U 22101G   23303.14709772  .00000329  00000-0  38754-4 0  9998,2 53533  53.2165 341.7278 0001386  99.7606 260.3542 15.08830589 66102,6917.909,95.438,540.733,538.815,0.0
53533.0,STARLINK-4493,PAYLOAD,2023-10-30 08:17:58,15.08838188,0.0001916,53.2183,340.8376,108.06,252.0601,8.3168e-05,1.036e-05,0.0,0 STARLINK-4493,1 53533U 22101G   23303.34581433  .00001036  00000-0  83168-4 0  9997,2 53533  53.2183 340.8376 0001916 108.0600 252.0601 15.08838188 66138,6917.886,95.438,541.076,538.425,0.0
53533.0,STARLINK-4493,PAYLOAD,2023-10-31 11:19:32,15.0883659,0.0001804,53.2181,335.7831,97.1197,263.0,-4.0236e-05,-9.28e-06,0.0,0 STARLINK-4493,1 53533U 22101G   23304.47189926 -.00000928  00000-0 -40236-4 0  9993,2 53533  53.2181 335.7831 0001804  97.1197 263.0000 15.08836590 66309,6917.891,95.438,541.004,538.508,0.0
53533.0,STARLINK-4493,PAYLOAD,2023-10-31 19:16:27,15.08838136,0.0001671,53.2178,334.2949,89.4811,270.6373,7.2427e-05,8.65e-06,0.0,0 STARLINK-4493,1 53533U 22101G   23304.80309974  .00000865  00000-0  72427-4 0  9992,2 53533  53.2178 334.2949 0001671  89.4811 270.6373 15.08838136 66358,6917.886,95.438,540.907,538.595,0.0
53533.0,STARLINK-4493,PAYLOAD,2023-11-01 09:34:55,15.08846338,0.0001749,53.2182,331.618,95.2932,264.826,0.00023585,3.468e-05,0.0,0 STARLINK-4493,1 53533U 22101G   23305.39925732  .00003468  00000-0  23585-3 0  9995,2 53533  53.2182 331.6180 0001749  95.2932 264.8260 15.08846338 66449,6917.861,95.437,540.936,538.516,0.0
53533.0,STARLINK-4493,PAYLOAD,2023-11-01 19:07:14,15.08841945,0.0001871,53.2183,329.8352,80.7938,279.3266,0.00015847,2.235e-05,0.0,0 STARLINK-4493,1 53533U 22101G   23305.79670066  .00002235  00000-0  15847-3 0  9999,2 53533  53.2183 329.8352 0001871  80.7938 279.3266 15.08841945 66504,6917.874,95.437,541.034,538.445,0.0
